STARLINK-1363           
1 45568U 20025AP  26068.19024867  .00121445  00000+0  73874-3 0  9994
2 45568  53.0430  40.2129 0008307  56.0535 304.1273 15.76582535325978
STARLINK-36590          
1 67577U 26016S   26068.69881995  .00223281  00000+0  14585-2 0  9996
2 67577  97.2830 129.1680 0001145  81.2324 278.9071 15.75198621  6804
