[{"OBJECT_NAME":"STARLINK-1363","OBJECT_ID":"2020-025AP","EPOCH":"2026-03-09T04:33:57.485088","MEAN_MOTION":15.76582535,"ECCENTRICITY":0.00083079,"INCLINATION":53.043,"RA_OF_ASC_NODE":40.2129,"ARG_OF_PERICENTER":56.0535,"MEAN_ANOMALY":304.1273,"EPHEMERIS_TYPE":0,"CLASSIFICATION_TYPE":"U","NORAD_CAT_ID":45568,"ELEMENT_SET_NO":999,"REV_AT_EPOCH":32597,"BSTAR":0.00073874012,"MEAN_MOTION_DOT":0.00121445,"MEAN_MOTION_DDOT":0},{"OBJECT_NAME":"STARLINK-36590","OBJECT_ID":"2026-016S","EPOCH":"2026-03-09T16:46:18.043680","MEAN_MOTION":15.75198621,"ECCENTRICITY":0.00011452,"INCLINATION":97.283,"RA_OF_ASC_NODE":129.168,"ARG_OF_PERICENTER":81.2324,"MEAN_ANOMALY":278.9071,"EPHEMERIS_TYPE":0,"CLASSIFICATION_TYPE":"U","NORAD_CAT_ID":67577,"ELEMENT_SET_NO":999,"REV_AT_EPOCH":680,"BSTAR":0.0014584978,"MEAN_MOTION_DOT":0.00223281,"MEAN_MOTION_DDOT":0}]
